{"type": "FeatureCollection", "features": [ {"type": "Feature", "properties": {"norad_id": 34910, "name": "COSMOS 2251 DEB", "group": "cosmos-2251-debris", "lat": 53.920279748118745, "lon": 111.8691267703691, "alt_km": 1407.4825533301846, "timestamp": "2025-12-20T22:39:11.020349+00:00", "meta": {"OBJECT_NAME": "COSMOS 2251 DEB", "OBJECT_ID": "1993-036ADF", "EPOCH": "2025-12-16T00:48:30.580128", "MEAN_MOTION": 13.37690746, "ECCENTRICITY": 0.04679747, "INCLINATION": 73.876, "RA_OF_ASC_NODE": 96.2259, "ARG_OF_PERICENTER": 214.6056, "MEAN_ANOMALY": 328.1497, "EPHEMERIS_TYPE": 0, "CLASSIFICATION_TYPE": "U", "NORAD_CAT_ID": 34910, "ELEMENT_SET_NO": 999, "REV_AT_EPOCH": 81568, "BSTAR": 0.0011529423, "MEAN_MOTION_DOT": 1.118e-05, "MEAN_MOTION_DDOT": 0}, "tle": {"line1": "1 34910U 93036ADF 25350.03368727  .00001118  00000+0  11529-2 0  9999", "line2": "2 34910  73.8760  96.2259 0467974 214.6056 328.1497 13.37690746815682"}}, "geometry": {"type": "Point", "coordinates": [111.8691267703691, 53.920279748118745]}}, {"type": "Feature", "properties": {"norad_id": 34911, "name": "COSMOS 2251 DEB", "group": "cosmos-2251-debris", "lat": -8.972470910966578, "lon": 51.70031955469583, "alt_km": 755.6374594708905, "timestamp": "2025-12-20T22:39:11.020358+00:00", "meta": {"OBJECT_NAME": "COSMOS 2251 DEB", "OBJECT_ID": "1993-036ADG", "EPOCH": "2025-12-18T03:01:44.907744", "MEAN_MOTION": 14.59380767, "ECCENTRICITY": 0.00838464, "INCLINATION": 74.0407, "RA_OF_ASC_NODE": 234.4788, "ARG_OF_PERICENTER": 358.5052, "MEAN_ANOMALY": 153.7057, "EPHEMERIS_TYPE": 0, "CLASSIFICATION_TYPE": "U", "NORAD_CAT_ID": 34911, "ELEMENT_SET_NO": 999, "REV_AT_EPOCH": 88665, "BSTAR": 0.00011478995, "MEAN_MOTION_DOT": 5.38e-06, "MEAN_MOTION_DDOT": 0}, "tle": {"line1": "1 34911U 93036ADG 25352.12621421  .00000538  00000+0  11479-3 0  9995", "line2": "2 34911  74.0407 234.4788 0083846 358.5052 153.7057 14.59380767886656"}}, "geometry": {"type": "Point", "coordinates": [51.70031955469583, -8.972470910966578]}}, {"type": "Feature", "properties": {"norad_id": 34913, "name": "COSMOS 2251 DEB", "group": "cosmos-2251-debris", "lat": -2.5615235688348887, "lon": 88.19766371600687, "alt_km": 793.6303244330866, "timestamp": "2025-12-20T22:39:11.020367+00:00", "meta": {"OBJECT_NAME": "COSMOS 2251 DEB", "OBJECT_ID": "1993-036ADJ", "EPOCH": "2025-12-20T12:36:12.876192", "MEAN_MOTION": 14.34639669, "ECCENTRICITY": 0.00206652, "INCLINATION": 74.0285, "RA_OF_ASC_NODE": 268.2306, "ARG_OF_PERICENTER": 16.0203, "MEAN_ANOMALY": 164.7367, "EPHEMERIS_TYPE": 0, "CLASSIFICATION_TYPE": "U", "NORAD_CAT_ID": 34913, "ELEMENT_SET_NO": 999, "REV_AT_EPOCH": 65299, "BSTAR": 3.9213996e-05, "MEAN_MOTION_DOT": 8.5e-07, "MEAN_MOTION_DDOT": 0}, "tle": {"line1": "1 34913U 93036ADJ 25354.52514903  .00000085  00000+0  39214-4 0  9994", "line2": "2 34913  74.0285 268.2306 0020665  16.0203 164.7367 14.34639669652992"}}, "geometry": {"type": "Point", "coordinates": [88.19766371600687, -2.5615235688348887]}}, {"type": "Feature", "properties": {"norad_id": 34918, "name": "COSMOS 2251 DEB", "group": "cosmos-2251-debris", "lat": 33.36790848124521, "lon": -51.18457367941374, "alt_km": 701.8517203980964, "timestamp": "2025-12-20T22:39:11.020376+00:00", "meta": {"OBJECT_NAME": "COSMOS 2251 DEB", "OBJECT_ID": "1993-036ADP", "EPOCH": "2025-12-19T03:50:35.567232", "MEAN_MOTION": 14.61304419, "ECCENTRICITY": 0.00332262, "INCLINATION": 74.0713, "RA_OF_ASC_NODE": 301.3767, "ARG_OF_PERICENTER": 267.8083, "MEAN_ANOMALY": 106.949, "EPHEMERIS_TYPE": 0, "CLASSIFICATION_TYPE": "U", "NORAD_CAT_ID": 34918, "ELEMENT_SET_NO": 999, "REV_AT_EPOCH": 65430, "BSTAR": 0.001315247, "MEAN_MOTION_DOT": 6.521e-05, "MEAN_MOTION_DDOT": 0}, "tle": {"line1": "1 34918U 93036ADP 25353.16013388  .00006521  00000+0  13152-2 0  9991", "line2": "2 34918  74.0713 301.3767 0033226 267.8083 106.9490 14.61304419654306"}}, "geometry": {"type": "Point", "coordinates": [-51.18457367941374, 33.36790848124521]}}, {"type": "Feature", "properties": {"norad_id": 34924, "name": "COSMOS 2251 DEB", "group": "cosmos-2251-debris", "lat": -4.762937701368259, "lon": 72.42970269888443, "alt_km": 732.0505225005327, "timestamp": "2025-12-20T22:39:11.020385+00:00", "meta": {"OBJECT_NAME": "COSMOS 2251 DEB", "OBJECT_ID": "1993-036ADV", "EPOCH": "2025-12-20T10:06:43.465824", "MEAN_MOTION": 14.60094001, "ECCENTRICITY": 0.00537198, "INCLINATION": 74.0411, "RA_OF_ASC_NODE": 74.7925, "ARG_OF_PERICENTER": 157.5235, "MEAN_ANOMALY": 332.3117, "EPHEMERIS_TYPE": 0, "CLASSIFICATION_TYPE": "U", "NORAD_CAT_ID": 34924, "ELEMENT_SET_NO": 999, "REV_AT_EPOCH": 87835, "BSTAR": 0.00056900613, "MEAN_MOTION_DOT": 2.762e-05, "MEAN_MOTION_DDOT": 0}, "tle": {"line1": "1 34924U 93036ADV 25354.42133641  .00002762  00000+0  56901-3 0  9996", "line2": "2 34924  74.0411  74.7925 0053719 157.5235 332.3117 14.60094001878354"}}, "geometry": {"type": "Point", "coordinates": [72.42970269888443, -4.762937701368259]}}, {"type": "Feature", "properties": {"norad_id": 34944, "name": "COSMOS 2251 DEB", "group": "cosmos-2251-debris", "lat": -9.242426171385434, "lon": 39.96090738261887, "alt_km": 940.2212992896393, "timestamp": "2025-12-20T22:39:11.020394+00:00", "meta": {"OBJECT_NAME": "COSMOS 2251 DEB", "OBJECT_ID": "1993-036ADX", "EPOCH": "2025-12-17T02:06:11.847168", "MEAN_MOTION": 14.14195665, "ECCENTRICITY": 0.02198727, "INCLINATION": 73.7495, "RA_OF_ASC_NODE": 224.195, "ARG_OF_PERICENTER": 70.8954, "MEAN_ANOMALY": 291.5851, "EPHEMERIS_TYPE": 0, "CLASSIFICATION_TYPE": "U", "NORAD_CAT_ID": 34944, "ELEMENT_SET_NO": 999, "REV_AT_EPOCH": 64144, "BSTAR": 0.00030334686, "MEAN_MOTION_DOT": 7.03e-06, "MEAN_MOTION_DDOT": 0}, "tle": {"line1": "1 34944U 93036ADX 25351.08763712  .00000703  00000+0  30335-3 0  9991", "line2": "2 34944  73.7495 224.1950 0219872  70.8954 291.5851 14.14195665641448"}}, "geometry": {"type": "Point", "coordinates": [39.96090738261887, -9.242426171385434]}}, {"type": "Feature", "properties": {"norad_id": 34946, "name": "COSMOS 2251 DEB", "group": "cosmos-2251-debris", "lat": -69.91381954609878, "lon": -162.02474399144685, "alt_km": 725.0033888449616, "timestamp": "2025-12-20T22:39:11.020403+00:00", "meta": {"OBJECT_NAME": "COSMOS 2251 DEB", "OBJECT_ID": "1993-036ADZ", "EPOCH": "2025-12-20T14:54:46.281600", "MEAN_MOTION": 14.62033137, "ECCENTRICITY": 0.00485557, "INCLINATION": 74.0223, "RA_OF_ASC_NODE": 327.0088, "ARG_OF_PERICENTER": 101.7315, "MEAN_ANOMALY": 258.9305, "EPHEMERIS_TYPE": 0, "CLASSIFICATION_TYPE": "U", "NORAD_CAT_ID": 34946, "ELEMENT_SET_NO": 999, "REV_AT_EPOCH": 88324, "BSTAR": 0.00036557403, "MEAN_MOTION_DOT": 1.835e-05, "MEAN_MOTION_DDOT": 0}, "tle": {"line1": "1 34946U 93036ADZ 25354.62136900  .00001835  00000+0  36557-3 0  9998", "line2": "2 34946  74.0223 327.0088 0048555 101.7315 258.9305 14.62033137883246"}}, "geometry": {"type": "Point", "coordinates": [-162.02474399144685, -69.91381954609878]}}, {"type": "Feature", "properties": {"norad_id": 34949, "name": "COSMOS 2251 DEB", "group": "cosmos-2251-debris", "lat": 29.909626022602872, "lon": -95.85752457338833, "alt_km": 644.4383091018035, "timestamp": "2025-12-20T22:39:11.020412+00:00", "meta": {"OBJECT_NAME": "COSMOS 2251 DEB", "OBJECT_ID": "1993-036AEC", "EPOCH": "2025-12-19T23:10:09.715008", "MEAN_MOTION": 14.74045348, "ECCENTRICITY": 0.0080206, "INCLINATION": 74.0194, "RA_OF_ASC_NODE": 95.5416, "ARG_OF_PERICENTER": 239.3679, "MEAN_ANOMALY": 119.957, "EPHEMERIS_TYPE": 0, "CLASSIFICATION_TYPE": "U", "NORAD_CAT_ID": 34949, "ELEMENT_SET_NO": 999, "REV_AT_EPOCH": 88468, "BSTAR": 0.00035104, "MEAN_MOTION_DOT": 2.396e-05, "MEAN_MOTION_DDOT": 0}, "tle": {"line1": "1 34949U 93036AEC 25353.96539022  .00002396  00000+0  35104-3 0  9999", "line2": "2 34949  74.0194  95.5416 0080206 239.3679 119.9570 14.74045348884687"}}, "geometry": {"type": "Point", "coordinates": [-95.85752457338833, 29.909626022602872]}}, {"type": "Feature", "properties": {"norad_id": 34953, "name": "COSMOS 2251 DEB", "group": "cosmos-2251-debris", "lat": -23.189579142745654, "lon": 4.6449196724701585, "alt_km": 632.0262294578897, "timestamp": "2025-12-20T22:39:11.020421+00:00", "meta": {"OBJECT_NAME": "COSMOS 2251 DEB", "OBJECT_ID": "1993-036AEG", "EPOCH": "2025-12-20T12:00:10.528704", "MEAN_MOTION": 14.69018234, "ECCENTRICITY": 0.00585264, "INCLINATION": 74.0926, "RA_OF_ASC_NODE": 12.518, "ARG_OF_PERICENTER": 2.3032, "MEAN_ANOMALY": 148.1108, "EPHEMERIS_TYPE": 0, "CLASSIFICATION_TYPE": "U", "NORAD_CAT_ID": 34953, "ELEMENT_SET_NO": 999, "REV_AT_EPOCH": 88242, "BSTAR": 0.00052437151, "MEAN_MOTION_DOT": 3.125e-05, "MEAN_MOTION_DDOT": 0}, "tle": {"line1": "1 34953U 93036AEG 25354.50012186  .00003125  00000+0  52437-3 0  9991", "line2": "2 34953  74.0926  12.5180 0058526   2.3032 148.1108 14.69018234882422"}}, "geometry": {"type": "Point", "coordinates": [4.6449196724701585, -23.189579142745654]}}, {"type": "Feature", "properties": {"norad_id": 34955, "name": "COSMOS 2251 DEB", "group": "cosmos-2251-debris", "lat": -35.38167594427022, "lon": -141.9147709181802, "alt_km": 521.9259253743849, "timestamp": "2025-12-20T22:39:11.020431+00:00", "meta": {"OBJECT_NAME": "COSMOS 2251 DEB", "OBJECT_ID": "1993-036AEJ", "EPOCH": "2025-12-20T00:24:58.893120", "MEAN_MOTION": 15.00658938, "ECCENTRICITY": 0.00779123, "INCLINATION": 74.0366, "RA_OF_ASC_NODE": 231.6989, "ARG_OF_PERICENTER": 299.5962, "MEAN_ANOMALY": 59.7477, "EPHEMERIS_TYPE": 0, "CLASSIFICATION_TYPE": "U", "NORAD_CAT_ID": 34955, "ELEMENT_SET_NO": 999, "REV_AT_EPOCH": 90143, "BSTAR": 0.00046776562, "MEAN_MOTION_DOT": 6.274e-05, "MEAN_MOTION_DDOT": 0}, "tle": {"line1": "1 34955U 93036AEJ 25354.01734830  .00006274  00000+0  46777-3 0  9994", "line2": "2 34955  74.0366 231.6989 0077912 299.5962  59.7477 15.00658938901431"}}, "geometry": {"type": "Point", "coordinates": [-141.9147709181802, -35.38167594427022]}}]}